NORAD_CAT_ID,OBJECT_NAME,OBJECT_TYPE,EPOCH,MEAN_MOTION,ECCENTRICITY,INCLINATION,RA_OF_ASC_NODE,ARG_OF_PERICENTER,MEAN_ANOMALY,BSTAR,MEAN_MOTION_DOT,MEAN_MOTION_DDOT,TLE_LINE0,TLE_LINE1,TLE_LINE2,SEMIMAJOR_AXIS,PERIOD,APOGEE,PERIGEE,DECAYED
54162.0,STARLINK-5273,PAYLOAD,2024-07-31 18:34:23,15.08836192,0.0001192,53.2182,124.4173,112.7461,247.3657,0.00016719,2.374e-05,0.0,0 STARLINK-5273,1 54162U 22141F   24213.77388029  .00002374  00000-0  16719-3 0  9997,2 54162  53.2182 124.4173 0001192 112.7461 247.3657 15.08836192 97269,6917.892,95.438,540.582,538.932,0.0
54162.0,STARLINK-5273,PAYLOAD,2024-07-31 23:20:32,15.08845826,8.52e-05,53.2171,123.5244,103.8933,256.2154,1.2042e-05,-9.6e-07,0.0,0 STARLINK-5273,1 54162U 22141F   24213.97259815 -.00000096  00000-0  12042-4 0  9995,2 54162  53.2171 123.5244 0000852 103.8933 256.2154 15.08845826 97291,6917.863,95.437,540.317,539.138,0.0
54162.0,STARLINK-5273,PAYLOAD,2024-08-01 10:28:14,15.0884461,9.68e-05,53.2182,121.4411,89.9743,270.136,-6.9667e-05,-1.396e-05,0.0,0 STARLINK-5273,1 54162U 22141F   24214.43627878 -.00001396  00000-0 -69667-4 0  9995,2 54162  53.2182 121.4411 0000968  89.9743 270.1360 15.08844610 97369,6917.866,95.437,540.401,539.062,0.0
54162.0,STARLINK-5273,PAYLOAD,2024-08-01 21:35:55,15.08857517,0.0001077,53.2189,119.3673,80.5462,279.5652,0.00012554,1.712e-05,0.0,0 STARLINK-5273,1 54162U 22141F   24214.89994466  .00001712  00000-0  12554-3 0  9997,2 54162  53.2189 119.3673 0001077  80.5462 279.5652 15.08857517 97434,6917.827,95.436,540.437,538.947,0.0
54162.0,STARLINK-5273,PAYLOAD,2024-08-01 23:11:18,15.08858607,0.0001022,53.2179,119.0659,99.1573,260.9535,9.7773e-05,1.269e-05,0.0,0 STARLINK-5273,1 54162U 22141F   24214.96618185  .00001269  00000-0  97773-4 0  9990,2 54162  53.2179 119.0659 0001022  99.1573 260.9535 15.08858607 97449,6917.824,95.436,540.396,538.982,0.0
54162.0,STARLINK-5273,PAYLOAD,2024-08-02 10:18:58,15.08869397,8.76e-05,53.2182,116.9838,70.0749,290.0338,0.0002537,3.755e-05,0.0,0 STARLINK-5273,1 54162U 22141F   24215.42984592  .00003755  00000-0  25370-3 0  9995,2 54162  53.2182 116.9838 0000876  70.0749 290.0338 15.08869397 97518,6917.791,95.436,540.262,539.05,0.0
54162.0,STARLINK-5273,PAYLOAD,2024-08-02 18:15:58,15.08808057,9.88e-05,53.2165,115.4946,73.4225,286.6876,-6.6108e-05,-1.339e-05,0.0,0 STARLINK-5273,1 54162U 22141F   24215.76109478 -.00001339  00000-0 -66108-4 0  9997,2 54162  53.2165 115.4946 0000988  73.4225 286.6876 15.08808057 97562,6917.978,95.44,540.527,539.16,0.0
54162.0,STARLINK-5273,PAYLOAD,2024-08-02 21:26:44,15.08812,0.0001078,53.2185,114.9028,107.2559,252.8551,-1.5987e-05,-5.42e-06,0.0,0 STARLINK-5273,1 54162U 22141F   24215.89357247 -.00000542  00000-0 -15987-4 0  9994,2 54162  53.2185 114.9028 0001078 107.2559 252.8551 15.08812000 97586,6917.966,95.439,540.577,539.085,0.0
54162.0,STARLINK-5273,PAYLOAD,2024-08-03 03:48:16,15.08820645,0.0001258,53.2186,113.7123,104.0908,256.0224,-0.0001318,-2.384e-05,0.0,0 STARLINK-5273,1 54162U 22141F   24216.15852239 -.00002384  00000-0 -13180-3 0  9993,2 54162  53.2186 113.7123 0001258 104.0908 256.0224 15.08820645 97625,6917.94,95.439,540.675,538.934,0.0
54162.0,STARLINK-5273,PAYLOAD,2024-08-03 10:09:48,15.08834131,8.68e-05,53.2179,112.5228,79.7367,280.3723,2.3784e-05,9.1e-07,0.0,0 STARLINK-5273,1 54162U 22141F   24216.42347802  .00000091  00000-0  23784-4 0  9991,2 54162  53.2179 112.5228 0000868  79.7367 280.3723 15.08834131 97666,6917.898,95.438,540.364,539.163,0.0
54162.0,STARLINK-5273,PAYLOAD,2024-08-03 22:52:53,15.08833898,8.49e-05,53.2184,110.1461,89.7813,270.3276,-3.6004e-05,-8.61e-06,0.0,0 STARLINK-5273,1 54162U 22141F   24216.95339955 -.00000861  00000-0 -36004-4 0  9995,2 54162  53.2184 110.1461 0000849  89.7813 270.3276 15.08833898 97741,6917.899,95.438,540.351,539.177,0.0
54162.0,STARLINK-5273,PAYLOAD,2024-08-04 10:00:35,15.08859895,0.0001025,53.2178,108.0625,76.6915,283.4191,0.0008804,0.00013759,0.0,0 STARLINK-5273,1 54162U 22141F   24217.41707495  .00013759  00000-0  88040-3 0  9999,2 54162  53.2178 108.0625 0001025  76.6915 283.4191 15.08859895 97811,6917.82,95.436,540.394,538.976,0.0
54162.0,STARLINK-5273,PAYLOAD,2024-08-04 21:08:17,15.0885895,0.0001097,53.2181,105.9827,95.1821,264.9296,0.00089053,0.00013921,0.0,0 STARLINK-5273,1 54162U 22141F   24217.88075829  .00013921  00000-0  89053-3 0  9995,2 54162  53.2181 105.9827 0001097  95.1821 264.9296 15.08858950 97884,6917.822,95.436,540.446,538.929,0.0
54162.0,STARLINK-5273,PAYLOAD,2024-08-04 22:43:40,15.08868784,6.12e-05,53.2171,105.6852,105.6959,254.41,0.0015173,0.00023961,0.0,0 STARLINK-5273,1 54162U 22141F   24217.94699583  .00023961  00000-0  15173-2 0  9997,2 54162  53.2171 105.6852 0000612 105.6959 254.4100 15.08868784 97894,6917.792,95.436,540.081,539.234,0.0
54162.0,STARLINK-5273,PAYLOAD,2024-08-05 01:54:26,15.08874768,8.98e-05,53.2164,105.0911,88.4409,271.6686,0.0028149,0.00044839,0.0,0 STARLINK-5273,1 54162U 22141F   24218.07947507  .00044839  00000-0  28149-2 0  9998,2 54162  53.2164 105.0911 0000898  88.4409 271.6686 15.08874768 97912,6917.774,95.435,540.26,539.018,0.0
54162.0,STARLINK-5273,PAYLOAD,2024-08-05 20:59:05,15.08804524,0.0001097,53.2166,101.5192,81.4684,278.6432,6.529e-05,7.51e-06,0.0,0 STARLINK-5273,1 54162U 22141F   24218.87436624  .00000751  00000-0  65290-4 0  9994,2 54162  53.2166 101.5192 0001097  81.4684 278.6432 15.08804524 98039,6917.989,95.44,540.613,539.095,0.0
54162.0,STARLINK-5273,PAYLOAD,2024-08-05 22:34:28,15.08808866,9.46e-05,53.2167,101.2208,77.945,282.1648,0.0007322,0.00011374,0.0,0 STARLINK-5273,1 54162U 22141F   24218.94060728  .00011374  00000-0  73220-3 0  9994,2 54162  53.2167 101.2208 0000946  77.9450 282.1648 15.08808866 98041,6917.976,95.44,540.495,539.186,0.0
54162.0,STARLINK-5273,PAYLOAD,2024-08-06 20:49:53,15.08860006,9.39e-05,53.2158,97.06,61.1551,298.9535,0.0021731,0.00034485,0.0,0 STARLINK-5273,1 54162U 22141F   24219.86797460  .00034485  00000-0  21731-2 0  9993,2 54162  53.2158  97.0600 0000939  61.1551 298.9535 15.08860006 98187,6917.819,95.436,540.334,539.035,0.0
54162.0,STARLINK-5273,PAYLOAD,2024-08-07 01:36:02,15.08873357,9.28e-05,53.2161,96.1675,61.8628,298.2457,0.0021681,0.00034418,0.0,0 STARLINK-5273,1 54162U 22141F   24220.06669088  .00034418  00000-0  21681-2 0  9991,2 54162  53.2161  96.1675 0000928  61.8628 298.2457 15.08873357 98216,6917.778,95.435,540.285,539.001,0.0
54162.0,STARLINK-5273,PAYLOAD,2024-08-07 20:40:39,15.08864994,0.0001382,53.2169,92.591,120.002,240.1109,0.0012426,0.00019557,0.0,0 STARLINK-5273,1 54162U 22141F   24220.86156430  .00019557  00000-0  12426-2 0  9995,2 54162  53.2169  92.5910 0001382 120.0020 240.1109 15.08864994 98335,6917.804,95.436,540.625,538.713,0.0
54162.0,STARLINK-5273,PAYLOAD,2024-08-08 20:31:26,15.08862149,0.0001185,53.2172,88.1357,68.4718,291.6401,0.001346,0.00021211,0.0,0 STARLINK-5273,1 54162U 22141F   24221.85516503  .00021211  00000-0  13460-2 0  9995,2 54162  53.2172  88.1357 0001185  68.4718 291.6401 15.08862149 98487,6917.813,95.436,540.497,538.858,0.0
54162.0,STARLINK-5273,PAYLOAD,2024-08-08 22:06:49,15.08857716,9.46e-05,53.2162,87.8403,88.9048,271.2053,0.0009787,0.0001533,0.0,0 STARLINK-5273,1 54162U 22141F   24221.92140353  .00015330  00000-0  97870-3 0  9992,2 54162  53.2162  87.8403 0000946  88.9048 271.2053 15.08857716 98493,6917.826,95.436,540.346,539.037,0.0
54162.0,STARLINK-5273,PAYLOAD,2024-08-09 01:17:35,15.08852644,9.35e-05,53.2162,87.2456,87.178,272.9319,0.00054978,8.476e-05,0.0,0 STARLINK-5273,1 54162U 22141F   24222.05388243  .00008476  00000-0  54978-3 0  9994,2 54162  53.2162  87.2456 0000935  87.1780 272.9319 15.08852644 98518,6917.842,95.437,540.354,539.06,0.0
54162.0,STARLINK-5273,PAYLOAD,2024-08-09 14:00:40,15.08855545,0.0002776,53.2165,84.8704,81.7216,278.4091,0.00041336,6.299e-05,0.0,0 STARLINK-5273,1 54162U 22141F   24222.58380270  .00006299  00000-0  41336-3 0  9999,2 54162  53.2165  84.8704 0002776  81.7216 278.4091 15.08855545 98598,6917.833,95.437,541.618,537.777,0.0
54162.0,STARLINK-5273,PAYLOAD,2024-08-09 20:22:13,15.08828206,0.0001247,53.218,83.6796,80.6624,279.4509,-0.00013636,-2.457e-05,0.0,0 STARLINK-5273,1 54162U 22141F   24222.84877090 -.00002457  00000-0 -13636-3 0  9995,2 54162  53.2180  83.6796 0001247  80.6624 279.4509 15.08828206 98630,6917.916,95.438,540.644,538.919,0.0
54162.0,STARLINK-5273,PAYLOAD,2024-08-10 13:51:27,15.0884743,0.0001201,53.2182,80.4075,86.7774,273.3356,0.00027075,4.025e-05,0.0,0 STARLINK-5273,1 54162U 22141F   24223.57740560  .00004025  00000-0  27075-3 0  9990,2 54162  53.2182  80.4075 0001201  86.7774 273.3356 15.08847430 98745,6917.858,95.437,540.554,538.892,0.0
54162.0,STARLINK-5273,PAYLOAD,2024-08-10 20:13:00,15.08850801,0.0001132,53.2177,79.2183,76.7709,283.3409,0.00095817,0.00014999,0.0,0 STARLINK-5273,1 54162U 22141F   24223.84236940  .00014999  00000-0  95817-3 0  9992,2 54162  53.2177  79.2183 0001132  76.7709 283.3409 15.08850801 98785,6917.847,95.437,540.495,538.929,0.0
54162.0,STARLINK-5273,PAYLOAD,2024-08-11 07:20:42,15.08863575,0.0001139,53.218,77.1365,88.717,271.3953,0.00091042,0.0001424,0.0,0 STARLINK-5273,1 54162U 22141F   24224.30604338  .00014240  00000-0  91042-3 0  9999,2 54162  53.2180  77.1365 0001139  88.7170 271.3953 15.08863575 98851,6917.808,95.436,540.461,538.885,0.0
54162.0,STARLINK-5273,PAYLOAD,2024-08-12 00:49:56,15.08854113,0.0001311,53.2169,73.8645,92.1032,268.011,0.00075462,0.00011747,0.0,0 STARLINK-5273,1 54162U 22141F   24225.03468545  .00011747  00000-0  75462-3 0  9995,2 54162  53.2169  73.8645 0001311  92.1032 268.0110 15.08854113 98968,6917.837,95.437,540.609,538.795,0.0
54162.0,STARLINK-5273,PAYLOAD,2024-08-12 07:11:28,15.08890305,9.04e-05,53.218,72.6735,52.5893,307.5181,0.0018505,0.00029326,0.0,0 STARLINK-5273,1 54162U 22141F   24225.29963802  .00029326  00000-0  18505-2 0  9995,2 54162  53.2180  72.6735 0000904  52.5893 307.5181 15.08890305 99006,6917.727,95.434,540.217,538.966,0.0
